[{"OBJECT_NAME":"STARLINK-4033","OBJECT_ID":"2022-053AY","EPOCH":"2026-03-09T10:48:56.639520","MEAN_MOTION":15.08837181,"ECCENTRICITY":0.00012116,"INCLINATION":53.217,"RA_OF_ASC_NODE":150.2231,"ARG_OF_PERICENTER":92.043,"MEAN_ANOMALY":268.07,"EPHEMERIS_TYPE":0,"CLASSIFICATION_TYPE":"U","NORAD_CAT_ID":52702,"ELEMENT_SET_NO":999,"REV_AT_EPOCH":21105,"BSTAR":-4.9513796e-5,"MEAN_MOTION_DOT":-1.076e-5,"MEAN_MOTION_DDOT":0},{"OBJECT_NAME":"OBJECT H","OBJECT_ID":"2017-042H","EPOCH":"2026-03-09T21:54:40.929408","MEAN_MOTION":15.07257911,"ECCENTRICITY":0.00117342,"INCLINATION":97.4058,"RA_OF_ASC_NODE":233.05,"ARG_OF_PERICENTER":93.954,"MEAN_ANOMALY":266.303,"EPHEMERIS_TYPE":0,"CLASSIFICATION_TYPE":"U","NORAD_CAT_ID":42832,"ELEMENT_SET_NO":999,"REV_AT_EPOCH":47198,"BSTAR":0.00041037265,"MEAN_MOTION_DOT":6.138e-5,"MEAN_MOTION_DDOT":0}]
